{
    "links": {
        "self": "http://www.neowsapp.com/rest/v1/neo/3709775?api_key=iIulBulltgU6a56xZRHN4H3l9WmuAYTsLGpBGhQ2"
    },
    "id": "3709775",
    "neo_reference_id": "3709775",
    "name": "(2015 CP)",
    "designation": "2015 CP",
    "nasa_jpl_url": "http://ssd.jpl.nasa.gov/sbdb.cgi?sstr=3709775",
    "absolute_magnitude_h": 26.3,
    "estimated_diameter": {
        "kilometers": {
            "estimated_diameter_min": 0.0146067964,
            "estimated_diameter_max": 0.0326617897
        },
        "meters": {
            "estimated_diameter_min": 14.6067964271,
            "estimated_diameter_max": 32.6617897446
        },
        "miles": {
            "estimated_diameter_min": 0.0090762397,
            "estimated_diameter_max": 0.020295089
        },
        "feet": {
            "estimated_diameter_min": 47.92256199,
            "estimated_diameter_max": 107.1581062656
        }
    },
    "is_potentially_hazardous_asteroid": false,
    "close_approach_data": [
        {
            "close_approach_date": "2015-02-03",
            "close_approach_date_full": "2015-Feb-03 12:32",
            "epoch_date_close_approach": 1422966720000,
            "relative_velocity": {
                "kilometers_per_second": "24.971657701",
                "kilometers_per_hour": "89897.9677235305",
                "miles_per_hour": "55859.1011113237"
            },
            "miss_distance": {
                "astronomical": "0.0057993643",
                "lunar": "2.2559527127",
                "kilometers": "867572.546634041",
                "miles": "539084.5827941258"
            },
            "orbiting_body": "Earth"
        },
        {
            "close_approach_date": "2015-02-03",
            "close_approach_date_full": "2015-Feb-03 16:50",
            "epoch_date_close_approach": 1422982200000,
            "relative_velocity": {
                "kilometers_per_second": "24.991632283",
                "kilometers_per_hour": "89969.8762186308",
                "miles_per_hour": "55903.7822537376"
            },
            "miss_distance": {
                "astronomical": "0.0054010597",
                "lunar": "2.1010122233",
                "kilometers": "807987.026862839",
                "miles": "502059.8576676182"
            },
            "orbiting_body": "Moon"
        }
    ],
    "orbital_data": {
        "orbit_id": "5",
        "orbit_determination_date": "2017-04-06 08:35:48",
        "first_observation_date": "2015-02-08",
        "last_observation_date": "2015-02-10",
        "data_arc_in_days": 2,
        "observations_used": 27,
        "orbit_uncertainty": "8",
        "minimum_orbit_intersection": ".00552916",
        "jupiter_tisserand_invariant": "2.973",
        "epoch_osculation": "2457062.5",
        "eccentricity": ".7959559792680259",
        "semi_major_axis": "2.420190789481031",
        "inclination": "4.82305703790296",
        "ascending_node_longitude": "137.8509843109027",
        "orbital_period": "1375.222067332468",
        "perihelion_distance": ".4938254596242004",
        "perihelion_argument": "258.9187085550781",
        "aphelion_distance": "4.346556119337862",
        "perihelion_time": "2457013.334067878601",
        "mean_anomaly": "12.87045633148979",
        "mean_motion": ".2617759040896541",
        "equinox": "J2000",
        "orbit_class": {
            "orbit_class_type": "APO",
            "orbit_class_description": "Near-Earth asteroid orbits which cross the Earth’s orbit similar to that of 1862 Apollo",
            "orbit_class_range": "a (semi-major axis) > 1.0 AU; q (perihelion) < 1.017 AU"
        }
    },
    "is_sentry_object": false
}